0 FENGYUN 1C DEB
1 31882U 99025CKH 13280.04013393  .00000639  00000-0  41889-3 0  1245
2 31882 098.8456 207.8068 0043882 122.8467 237.6010 14.05122078326022
0 FENGYUN 1C DEB
1 31882U 99025CKH 13283.03087401  .00000610  00000-0  40114-3 0  1258
2 31882 098.8461 210.7286 0043312 113.9713 246.5623 14.05125014326444
0 FENGYUN 1C DEB
1 31882U 99025CKH 13286.02159742  .00000602  00000-0  39649-3 0  1261
2 31882 098.8465 213.6470 0043347 105.5276 255.0684 14.05128571326863
0 FENGYUN 1C DEB
1 31882U 99025CKH 13289.01230387  .00000616  00000-0  40523-3 0  1277
2 31882 098.8413 216.5467 0041470 095.3868 265.2201 14.05132992327289
0 FENGYUN 1C DEB
1 31882U 99025CKH 13290.57885491  .00000626  00000-0  41125-3 0  1283
2 31882 098.8416 218.0750 0042884 091.6972 268.9203 14.05135465327504
0 FENGYUN 1C DEB
1 31882U 99025CKH 13293.56953899  .00000752  00000-0  48843-3 0  1298
2 31882 098.8384 220.9824 0041605 078.7696 281.8886 14.05143685327921
